MULTIPOLYGON (((-78.154780969999933 41.650096440000027, -78.155127299999947 41.650196509000068, -78.155959584999948 41.650342944000045, -78.156643053999971 41.650405617000047, -78.157041622999941 41.650358295000046, -78.157623488999945 41.65030407200004, -78.157898182999986 41.650299432000054, -78.158088013999986 41.650144005000072, -78.158314337999968 41.649852229000032, -78.159027929999979 41.650270195000076, -78.159599069999956 41.650112759000081, -78.160214924999934 41.649979300000041, -78.160884953999982 41.649823438000055, -78.161001729999953 41.648889304000079, -78.160903401999974 41.648886874000027, -78.160538823999957 41.648854995000079, -78.160114822999958 41.648787324000068, -78.159674584999948 41.648742125000069, -78.159186138999985 41.648752920000049, -78.158943423999972 41.648724041000037, -78.158775362999961 41.648731321000071, -78.158426522999946 41.648688379000077, -78.158354882999959 41.648583669000061, -78.158072500999936 41.648416557000075, -78.157821589999969 41.648227348000034, -78.157618387999946 41.64799356900005, -78.15765287399995 41.647902922000071, -78.157830635999971 41.648021696000058, -78.158078530999944 41.648279456000068, -78.158333461999973 41.648377264000032, -78.158526800999937 41.648141859000077, -78.158816056999967 41.64780588900004, -78.158223345999943 41.647413788000051, -78.157903313999952 41.647062744000038, -78.158040245999985 41.646723007000048, -78.158242467999969 41.645938812000054, -78.158183047999955 41.645903031000046, -78.157650937999961 41.64586698800008, -78.15687361199997 41.645859186000052, -78.156278061999956 41.645878755000069, -78.156265136999934 41.646518944000036, -78.155991463999953 41.64650073100006, -78.155093772999976 41.646455624000055, -78.154485500999954 41.646417679000081, -78.154290504999949 41.646344223000028, -78.153804593999951 41.646297870000069, -78.153542631999983 41.64636000400003, -78.153527533999977 41.646702755000035, -78.154045596999936 41.648442657000032, -78.154248146999976 41.648344738000048, -78.154445160999956 41.648372494000057, -78.154364470999951 41.648473433000049, -78.154258986999935 41.648791069000026, -78.154455636999955 41.649173380000036, -78.154734490999942 41.649420476000046, -78.15472140899999 41.649717535000036, -78.154780969999933 41.650096440000027), (-78.15543132199997 41.646972377000054, -78.15557394199999 41.647000675000072, -78.15566464799997 41.647029453000073, -78.155747833999953 41.647068662000038, -78.155761680999944 41.647129156000062, -78.155762493999987 41.647217623000074, -78.155685401999961 41.647254628000042, -78.15561213899997 41.647258119000071, -78.155553408999936 41.647306197000034, -78.155500094999979 41.647338486000081, -78.15546388599995 41.647464960000036, -78.155318744999988 41.647440138000036, -78.15515090599996 41.647395293000045, -78.154899358999955 41.647323607000033, -78.15471331699996 41.647317233000081, -78.154599042999962 41.647287879000032, -78.154502117999982 41.647239476000038, -78.154407943999956 41.647182306000047, -78.154418899999939 41.647094121000066, -78.154429944999947 41.647004183000035, -78.154446546999964 41.646894911000061, -78.154469775999985 41.646849493000047, -78.154579411999975 41.646876976000044, -78.15474110699995 41.64690044300005, -78.154861104999952 41.646906955000077, -78.154990361999978 41.646917227000074, -78.155079043999933 41.646991957000068, -78.155187652999984 41.646989334000068, -78.155312101999982 41.646948206000047, -78.15543132199997 41.646972377000054)))
